{{Infobox Planet  
| name = 368 Haidea
| image = 
| caption = 
| discovery=yes | physical_characteristics = yes | bgcolour=#FFFFC0
| discovery_ref = 
| discoverer = [[奥古斯特·沙卢瓦|奥古斯特·沙卢瓦]]
| discovery_site = [[尼斯|尼斯]]
| discovered =  1893年5月19日
| mp_name = 368
| alt_names = 1893 AB
| named_after = 
| mp_category=[[小行星带|主带小行星]]
| orbit_ref = <ref>[http://ssd.jpl.nasa.gov/sbdb.cgi?sstr=368 368 Haidea (1893 AB)]</ref>
| epoch = 2011年8月27日
| semimajor= 3.072634455477484AU
| perihelion=2.455484753877307AU
| aphelion=3.689784157077662[[天文单位|AU]]
| eccentricity =0.2008536031677978
| period =1967.273633269364[[日|地球日]]<br>5.39[[年|地球年]] 
| inclination=7.792057148253749[[角度|°]]
| asc_node=227.3724505065469°	
| arg_peri=91.68450612327034°
| mean_anomaly=304.0268341348968°
| avg_speed=16.99 km/s
 | dimensions=69.61千米
 | mass=
 | density=
 | surface_grav=
 | escape_velocity=
 | rotation=9.823[[小时|小时]]
 | spectral_type=[[D-型小行星|D]]
 | magnitude=
 | abs_magnitude=9.93
 | albedo=0.0389
 | single_temperature=
}}
'''小行星368'''（'''368 Haidea'''），是由[[法国|法国]][[天文学家|天文学家]][[奥古斯特·沙卢瓦|奥古斯特·沙卢瓦]]于1893年5月19日在法国[[尼斯|尼斯]]发现的[[小行星带|主带]][[小行星|小行星]]。

小行星368的命名依据不明。

== 参考资料 ==
{{Reflist}}

{{Minor Planet Number|(367)[[小行星367|小行星367]]|(369)[[小行星369|小行星369]]}}

[[Category:小行星带天体|Category:小行星带天体]]
[[Category:1893年发现的小行星|Category:1893年发现的小行星]]
[[Category:D-型小行星|Category:D-型小行星]]